[{"OBJECT_NAME":"OBJECT D","OBJECT_ID":"2025-274D","EPOCH":"2026-03-09T17:23:54.815136","MEAN_MOTION":14.92403662,"ECCENTRICITY":0.0012011,"INCLINATION":97.7437,"RA_OF_ASC_NODE":359.4086,"ARG_OF_PERICENTER":332.7011,"MEAN_ANOMALY":27.3575,"EPHEMERIS_TYPE":0,"CLASSIFICATION_TYPE":"U","NORAD_CAT_ID":66653,"ELEMENT_SET_NO":999,"REV_AT_EPOCH":1537,"BSTAR":0.00025671905,"MEAN_MOTION_DOT":2.576e-5,"MEAN_MOTION_DDOT":0},{"OBJECT_NAME":"FENGYUN 1C DEB","OBJECT_ID":"1999-025CRG","EPOCH":"2026-03-08T14:27:34.009344","MEAN_MOTION":14.80251627,"ECCENTRICITY":0.00427995,"INCLINATION":99.9292,"RA_OF_ASC_NODE":209.4988,"ARG_OF_PERICENTER":85.3799,"MEAN_ANOMALY":275.2293,"EPHEMERIS_TYPE":0,"CLASSIFICATION_TYPE":"U","NORAD_CAT_ID":32114,"ELEMENT_SET_NO":999,"REV_AT_EPOCH":66998,"BSTAR":0.0032122759,"MEAN_MOTION_DOT":0.00024841,"MEAN_MOTION_DDOT":0}]
